[{"OBJECT_NAME":"STARLINK-1567","OBJECT_ID":"2020-055M","EPOCH":"2026-03-10T00:00:02.999808","MEAN_MOTION":15.18253947,"ECCENTRICITY":0.00014476,"INCLINATION":53.0874,"RA_OF_ASC_NODE":124.961,"ARG_OF_PERICENTER":74.8938,"MEAN_ANOMALY":22.5266,"EPHEMERIS_TYPE":0,"CLASSIFICATION_TYPE":"U","NORAD_CAT_ID":46038,"ELEMENT_SET_NO":999,"REV_AT_EPOCH":579,"BSTAR":0.068265395,"MEAN_MOTION_DOT":0.01557947,"MEAN_MOTION_DDOT":0},{"OBJECT_NAME":"KUIPER-00160","OBJECT_ID":"2026-030B","EPOCH":"2026-03-09T18:20:16.137888","MEAN_MOTION":15.35623214,"ECCENTRICITY":0.00052725,"INCLINATION":51.8805,"RA_OF_ASC_NODE":218.8175,"ARG_OF_PERICENTER":54.195,"MEAN_ANOMALY":305.9525,"EPHEMERIS_TYPE":0,"CLASSIFICATION_TYPE":"U","NORAD_CAT_ID":67765,"ELEMENT_SET_NO":999,"REV_AT_EPOCH":510,"BSTAR":0.0010485695,"MEAN_MOTION_DOT":0.00036682,"MEAN_MOTION_DDOT":0}]
